{
  "type": "FeatureCollection",
  "features": [
    {
      "type": "Feature",
      "properties": {
        "norad_id": 30768,
        "name": "FENGYUN 1C DEB",
        "group": "fengyun-1c-debris",
        "lat": -6.771539823331973,
        "lon": 91.19108616191654,
        "alt_km": 728.8592733910409,
        "timestamp": "2025-12-26T03:50:12.371942+00:00",
        "meta_object_name": "FENGYUN 1C DEB",
        "meta_object_id": "1999-025AUE",
        "meta_epoch": "2025-12-24T22:18:41.088672",
        "meta_mean_motion": 14.48069507,
        "meta_eccentricity": 0.00241753,
        "meta_inclination": 98.6168,
        "meta_ra_of_asc_node": 88.9057,
        "meta_arg_of_pericenter": 63.7002,
        "meta_mean_anomaly": 0.2851,
        "meta_ephemeris_type": 0,
        "meta_classification_type": "U",
        "meta_norad_cat_id": 30768,
        "meta_element_set_no": 999,
        "meta_rev_at_epoch": 98047,
        "meta_bstar": 0.0021435736,
        "meta_mean_motion_dot": 7.963e-05,
        "meta_mean_motion_ddot": 0,
        "tle_line1": "1 30768U 99025AUE 25358.92964223  .00007963  00000+0  21436-2 0  9991",
        "tle_line2": "2 30768  98.6168  88.9057 0024175  63.7002   0.2851 14.48069507980476"
      },
      "geometry": {
        "type": "Point",
        "coordinates": [
          91.19108616191654,
          -6.771539823331973
        ]
      }
    },
    {
      "type": "Feature",
      "properties": {
        "norad_id": 30770,
        "name": "FENGYUN 1C DEB",
        "group": "fengyun-1c-debris",
        "lat": 60.96162594476302,
        "lon": -158.25690865523572,
        "alt_km": 839.5719483667663,
        "timestamp": "2025-12-26T03:50:12.371953+00:00",
        "meta_object_name": "FENGYUN 1C DEB",
        "meta_object_id": "1999-025AUG",
        "meta_epoch": "2025-12-25T00:14:08.810016",
        "meta_mean_motion": 14.15697653,
        "meta_eccentricity": 0.00128138,
        "meta_inclination": 98.6544,
        "meta_ra_of_asc_node": 4.7044,
        "meta_arg_of_pericenter": 248.344,
        "meta_mean_anomaly": 131.6417,
        "meta_ephemeris_type": 0,
        "meta_classification_type": "U",
        "meta_norad_cat_id": 30770,
        "meta_element_set_no": 999,
        "meta_rev_at_epoch": 97081,
        "meta_bstar": 0.00027807915,
        "meta_mean_motion_dot": 5.03e-06,
        "meta_mean_motion_ddot": 0,
        "tle_line1": "1 30770U 99025AUG 25359.00982419  .00000503  00000+0  27808-3 0  9994",
        "tle_line2": "2 30770  98.6544   4.7044 0012813 248.3440 131.6417 14.15697653970819"
      },
      "geometry": {
        "type": "Point",
        "coordinates": [
          -158.25690865523572,
          60.96162594476302
        ]
      }
    },
    {
      "type": "Feature",
      "properties": {
        "norad_id": 30771,
        "name": "FENGYUN 1C DEB",
        "group": "fengyun-1c-debris",
        "lat": 68.39281206845637,
        "lon": -47.339204595756335,
        "alt_km": 756.2456892397759,
        "timestamp": "2025-12-26T03:50:12.371962+00:00",
        "meta_object_name": "FENGYUN 1C DEB",
        "meta_object_id": "1999-025AUH",
        "meta_epoch": "2025-12-25T20:51:24.197184",
        "meta_mean_motion": 14.43376589,
        "meta_eccentricity": 0.002214,
        "meta_inclination": 98.9066,
        "meta_ra_of_asc_node": 335.6806,
        "meta_arg_of_pericenter": 260.2033,
        "meta_mean_anomaly": 99.6655,
        "meta_ephemeris_type": 0,
        "meta_classification_type": "U",
        "meta_norad_cat_id": 30771,
        "meta_element_set_no": 999,
        "meta_rev_at_epoch": 97253,
        "meta_bstar": 0.0025624,
        "meta_mean_motion_dot": 8.634e-05,
        "meta_mean_motion_ddot": 0,
        "tle_line1": "1 30771U 99025AUH 25359.86903006  .00008634  00000+0  25624-2 0  9990",
        "tle_line2": "2 30771  98.9066 335.6806 0022140 260.2033  99.6655 14.43376589972530"
      },
      "geometry": {
        "type": "Point",
        "coordinates": [
          -47.339204595756335,
          68.39281206845637
        ]
      }
    },
    {
      "type": "Feature",
      "properties": {
        "norad_id": 30802,
        "name": "FENGYUN 1C DEB",
        "group": "fengyun-1c-debris",
        "lat": 38.26094524328487,
        "lon": 80.16070181797068,
        "alt_km": 770.5686954382618,
        "timestamp": "2025-12-26T03:50:12.371972+00:00",
        "meta_object_name": "FENGYUN 1C DEB",
        "meta_object_id": "1999-025AUL",
        "meta_epoch": "2025-12-25T19:50:30.876000",
        "meta_mean_motion": 14.32563613,
        "meta_eccentricity": 0.0017512,
        "meta_inclination": 98.8365,
        "meta_ra_of_asc_node": 86.8682,
        "meta_arg_of_pericenter": 0.5523,
        "meta_mean_anomaly": 121.2156,
        "meta_ephemeris_type": 0,
        "meta_classification_type": "U",
        "meta_norad_cat_id": 30802,
        "meta_element_set_no": 999,
        "meta_rev_at_epoch": 97390,
        "meta_bstar": 0.001719,
        "meta_mean_motion_dot": 4.629e-05,
        "meta_mean_motion_ddot": 0,
        "tle_line1": "1 30802U 99025AUL 25359.82674625  .00004629  00000+0  17190-2 0  9992",
        "tle_line2": "2 30802  98.8365  86.8682 0017512   0.5523 121.2156 14.32563613973903"
      },
      "geometry": {
        "type": "Point",
        "coordinates": [
          80.16070181797068,
          38.26094524328487
        ]
      }
    },
    {
      "type": "Feature",
      "properties": {
        "norad_id": 30803,
        "name": "FENGYUN 1C DEB",
        "group": "fengyun-1c-debris",
        "lat": 56.47976558263969,
        "lon": 19.502334920711736,
        "alt_km": 870.9692921455362,
        "timestamp": "2025-12-26T03:50:12.371982+00:00",
        "meta_object_name": "FENGYUN 1C DEB",
        "meta_object_id": "1999-025AUM",
        "meta_epoch": "2025-12-25T14:34:14.004192",
        "meta_mean_motion": 14.11305038,
        "meta_eccentricity": 0.0107621,
        "meta_inclination": 99.2451,
        "meta_ra_of_asc_node": 33.1677,
        "meta_arg_of_pericenter": 165.8855,
        "meta_mean_anomaly": 326.134,
        "meta_ephemeris_type": 0,
        "meta_classification_type": "U",
        "meta_norad_cat_id": 30803,
        "meta_element_set_no": 999,
        "meta_rev_at_epoch": 96180,
        "meta_bstar": 0.001206,
        "meta_mean_motion_dot": 2.255e-05,
        "meta_mean_motion_ddot": 0,
        "tle_line1": "1 30803U 99025AUM 25359.60710653  .00002255  00000+0  12060-2 0  9995",
        "tle_line2": "2 30803  99.2451  33.1677 0107621 165.8855 326.1340 14.11305038961807"
      },
      "geometry": {
        "type": "Point",
        "coordinates": [
          19.502334920711736,
          56.47976558263969
        ]
      }
    },
    {
      "type": "Feature",
      "properties": {
        "norad_id": 30804,
        "name": "FENGYUN 1C DEB",
        "group": "fengyun-1c-debris",
        "lat": 17.243461408958535,
        "lon": 63.6626347028708,
        "alt_km": 798.3783106183273,
        "timestamp": "2025-12-26T03:50:12.371992+00:00",
        "meta_object_name": "FENGYUN 1C DEB",
        "meta_object_id": "1999-025AUN",
        "meta_epoch": "2025-12-25T11:19:07.624128",
        "meta_mean_motion": 14.54669455,
        "meta_eccentricity": 0.0185981,
        "meta_inclination": 98.8931,
        "meta_ra_of_asc_node": 65.7163,
        "meta_arg_of_pericenter": 152.0135,
        "meta_mean_anomaly": 224.9978,
        "meta_ephemeris_type": 0,
        "meta_classification_type": "U",
        "meta_norad_cat_id": 30804,
        "meta_element_set_no": 999,
        "meta_rev_at_epoch": 99662,
        "meta_bstar": 0.00045099,
        "meta_mean_motion_dot": 2.371e-05,
        "meta_mean_motion_ddot": 0,
        "tle_line1": "1 30804U 99025AUN 25359.47161602  .00002371  00000+0  45099-3 0  9993",
        "tle_line2": "2 30804  98.8931  65.7163 0185981 152.0135 224.9978 14.54669455996624"
      },
      "geometry": {
        "type": "Point",
        "coordinates": [
          63.6626347028708,
          17.243461408958535
        ]
      }
    },
    {
      "type": "Feature",
      "properties": {
        "norad_id": 30805,
        "name": "FENGYUN 1C DEB",
        "group": "fengyun-1c-debris",
        "lat": -11.6899504929702,
        "lon": -139.43975926687628,
        "alt_km": 857.9585568444063,
        "timestamp": "2025-12-26T03:50:12.372002+00:00",
        "meta_object_name": "FENGYUN 1C DEB",
        "meta_object_id": "1999-025AUP",
        "meta_epoch": "2025-12-25T13:58:20.998272",
        "meta_mean_motion": 14.02932036,
        "meta_eccentricity": 0.0070701,
        "meta_inclination": 98.8198,
        "meta_ra_of_asc_node": 41.8415,
        "meta_arg_of_pericenter": 247.9444,
        "meta_mean_anomaly": 268.4455,
        "meta_ephemeris_type": 0,
        "meta_classification_type": "U",
        "meta_norad_cat_id": 30805,
        "meta_element_set_no": 999,
        "meta_rev_at_epoch": 96140,
        "meta_bstar": 0.0010452,
        "meta_mean_motion_dot": 1.614e-05,
        "meta_mean_motion_ddot": 0,
        "tle_line1": "1 30805U 99025AUP 25359.58218748  .00001614  00000+0  10452-2 0  9993",
        "tle_line2": "2 30805  98.8198  41.8415 0070701 247.9444 268.4455 14.02932036961407"
      },
      "geometry": {
        "type": "Point",
        "coordinates": [
          -139.43975926687628,
          -11.6899504929702
        ]
      }
    }
  ]
}